[{"OBJECT_NAME":"STARLINK-6121","OBJECT_ID":"2023-046AP","EPOCH":"2026-03-09T22:00:01.999584","MEAN_MOTION":15.09230322,"ECCENTRICITY":0.00017386,"INCLINATION":43.0005,"RA_OF_ASC_NODE":92.8504,"ARG_OF_PERICENTER":296.4539,"MEAN_ANOMALY":149.7159,"EPHEMERIS_TYPE":0,"CLASSIFICATION_TYPE":"U","NORAD_CAT_ID":56129,"ELEMENT_SET_NO":999,"REV_AT_EPOCH":578,"BSTAR":0.0036487789,"MEAN_MOTION_DOT":0.00059329,"MEAN_MOTION_DDOT":0},{"OBJECT_NAME":"OBJECT G","OBJECT_ID":"2024-205G","EPOCH":"2026-03-09T23:05:54.449664","MEAN_MOTION":15.09392775,"ECCENTRICITY":0.00211709,"INCLINATION":97.4199,"RA_OF_ASC_NODE":141.9686,"ARG_OF_PERICENTER":130.0324,"MEAN_ANOMALY":230.2768,"EPHEMERIS_TYPE":0,"CLASSIFICATION_TYPE":"U","NORAD_CAT_ID":61900,"ELEMENT_SET_NO":999,"REV_AT_EPOCH":7318,"BSTAR":0.00059967322,"MEAN_MOTION_DOT":9.576e-5,"MEAN_MOTION_DDOT":0}]
